NORAD_CAT_ID,OBJECT_NAME,OBJECT_TYPE,EPOCH,MEAN_MOTION,ECCENTRICITY,INCLINATION,RA_OF_ASC_NODE,ARG_OF_PERICENTER,MEAN_ANOMALY,BSTAR,MEAN_MOTION_DOT,MEAN_MOTION_DDOT,TLE_LINE0,TLE_LINE1,TLE_LINE2,SEMIMAJOR_AXIS,PERIOD,APOGEE,PERIGEE,DECAYED
53592.0,STARLINK-4672,PAYLOAD,2023-09-25 19:09:06,15.08841902,0.0001633,53.2175,306.0765,96.1499,263.9679,-2.4886e-06,-3.28e-06,0.0,0 STARLINK-4672,1 53592U 22104E   23268.79798781 -.00000328  00000-0 -24886-5 0  9998,2 53592  53.2175 306.0765 0001633  96.1499 263.9679 15.08841902 60698,6917.875,95.437,540.869,538.61,0.0
53592.0,STARLINK-4672,PAYLOAD,2023-09-26 09:27:34,15.08845122,0.0001578,53.2169,303.4015,94.3132,265.804,8.5104e-05,1.067e-05,0.0,0 STARLINK-4672,1 53592U 22104E   23269.39414392  .00001067  00000-0  85104-4 0  9996,2 53592  53.2169 303.4015 0001578  94.3132 265.8040 15.08845122 59769,6917.865,95.437,540.821,538.638,0.0
53592.0,STARLINK-4672,PAYLOAD,2023-09-27 09:18:22,15.08832421,0.0001718,53.2174,298.9437,110.7829,249.3348,3.4615e-05,2.63e-06,0.0,0 STARLINK-4672,1 53592U 22104E   23270.38775511  .00000263  00000-0  34615-4 0  9998,2 53592  53.2174 298.9437 0001718 110.7829 249.3348 15.08832421 59916,6917.904,95.438,540.957,538.58,0.0
53592.0,STARLINK-4672,PAYLOAD,2023-09-28 10:44:32,15.08837588,0.0001547,53.2171,294.1792,98.9242,261.1925,4.2024e-06,-2.21e-06,0.0,0 STARLINK-4672,1 53592U 22104E   23271.44759798 -.00000221  00000-0  42024-5 0  9994,2 53592  53.2171 294.1792 0001547  98.9242 261.1925 15.08837588 60072,6917.888,95.438,540.823,538.683,0.0
53592.0,STARLINK-4672,PAYLOAD,2023-09-29 08:59:56,15.0883841,0.0001423,53.2165,290.0184,89.3116,270.8039,0.00015841,2.234e-05,0.0,0 STARLINK-4672,1 53592U 22104E   23272.37495684  .00002234  00000-0  15841-3 0  9998,2 53592  53.2165 290.0184 0001423  89.3116 270.8039 15.08838410 61239,6917.885,95.438,540.735,538.766,0.0
53592.0,STARLINK-4672,PAYLOAD,2023-09-30 05:39:56,15.0884784,0.0001419,53.2163,286.1525,90.5599,269.5556,0.00012603,1.719e-05,0.0,0 STARLINK-4672,1 53592U 22104E   23273.23607162  .00001719  00000-0  12603-3 0  9990,2 53592  53.2163 286.1525 0001419  90.5599 269.5556 15.08847840 61366,6917.856,95.437,540.703,538.74,0.0
53592.0,STARLINK-4672,PAYLOAD,2023-09-30 07:15:19,15.08849073,0.0001408,53.2163,285.8549,98.7774,261.3378,0.00013157,1.807e-05,0.0,0 STARLINK-4672,1 53592U 22104E   23273.30231009  .00001807  00000-0  13157-3 0  9994,2 53592  53.2163 285.8549 0001408  98.7774 261.3378 15.08849073 60351,6917.853,95.437,540.692,538.744,0.0
53592.0,STARLINK-4672,PAYLOAD,2023-10-01 10:16:53,15.08843061,0.0001445,53.2161,280.7996,90.699,269.4168,5.1047e-05,5.25e-06,0.0,0 STARLINK-4672,1 53592U 22104E   23274.42839592  .00000525  00000-0  51047-4 0  9996,2 53592  53.2161 280.7996 0001445  90.6990 269.4168 15.08843061 60527,6917.871,95.437,540.736,538.736,0.0
53592.0,STARLINK-4672,PAYLOAD,2023-10-02 10:07:40,15.08853065,0.000159,53.2163,276.3368,92.9738,267.1436,-0.0001127,-2.082e-05,0.0,0 STARLINK-4672,1 53592U 22104E   23275.42199337 -.00002082  00000-0 -11270-3 0  9998,2 53592  53.2163 276.3368 0001590  92.9738 267.1436 15.08853065 61696,6917.84,95.437,540.805,538.606,0.0
53592.0,STARLINK-4672,PAYLOAD,2023-10-03 03:36:55,15.08836655,0.0001498,53.2163,273.0649,92.5489,267.5675,7.4377e-05,8.96e-06,0.0,0 STARLINK-4672,1 53592U 22104E   23276.15064036  .00000896  00000-0  74377-4 0  9993,2 53592  53.2163 273.0649 0001498  92.5489 267.5675 15.08836655 60782,6917.891,95.438,540.792,538.719,0.0
53592.0,STARLINK-4672,PAYLOAD,2023-10-03 06:47:41,15.08841404,0.0001445,53.2161,272.4721,88.7591,271.3567,9.6867e-05,1.254e-05,0.0,0 STARLINK-4672,1 53592U 22104E   23276.28311689  .00001254  00000-0  96867-4 0  9993,2 53592  53.2161 272.4721 0001445  88.7591 271.3567 15.08841404 61824,6917.876,95.437,540.741,538.741,0.0
53592.0,STARLINK-4672,PAYLOAD,2023-10-03 16:20:00,15.08839583,0.0001453,53.2166,270.688,87.6032,272.5126,5.8736e-05,6.47e-06,0.0,0 STARLINK-4672,1 53592U 22104E   23276.68055925  .00000647  00000-0  58736-4 0  9993,2 53592  53.2166 270.6880 0001453  87.6032 272.5126 15.08839583 61887,6917.882,95.438,540.752,538.741,0.0
53592.0,STARLINK-4672,PAYLOAD,2023-10-04 00:16:56,15.08830884,0.0001507,53.2182,269.2062,93.7457,266.3708,1.1387e-05,-1.07e-06,0.0,0 STARLINK-4672,1 53592U 22104E   23277.01176867 -.00000107  00000-0  11387-4 0  9993,2 53592  53.2182 269.2062 0001507  93.7457 266.3708 15.08830884 60915,6917.908,95.438,540.816,538.731,0.0
53592.0,STARLINK-4672,PAYLOAD,2023-10-04 16:10:47,15.08838687,0.0001657,53.2184,266.2327,97.6843,262.4337,5.3721e-06,-2.03e-06,0.0,0 STARLINK-4672,1 53592U 22104E   23277.67416647 -.00000203  00000-0  53721-5 0  9994,2 53592  53.2184 266.2327 0001657  97.6843 262.4337 15.08838687 61012,6917.884,95.438,540.896,538.603,0.0
53592.0,STARLINK-4672,PAYLOAD,2023-10-05 09:40:01,15.08855152,0.0001532,53.2165,262.958,92.396,267.7208,0.00012479,1.699e-05,0.0,0 STARLINK-4672,1 53592U 22104E   23278.40279401  .00001699  00000-0  12479-3 0  9993,2 53592  53.2165 262.9580 0001532  92.3960 267.7208 15.08855152 61122,6917.834,95.437,540.759,538.639,0.0
53592.0,STARLINK-4672,PAYLOAD,2023-10-05 16:01:34,15.088484,0.0001436,53.2165,261.7646,76.0898,284.0253,6.9256e-05,8.15e-06,0.0,0 STARLINK-4672,1 53592U 22104E   23278.66775776  .00000815  00000-0  69256-4 0  9992,2 53592  53.2165 261.7646 0001436  76.0898 284.0253 15.08848400 61168,6917.855,95.437,540.713,538.726,0.0
53592.0,STARLINK-4672,PAYLOAD,2023-10-06 03:09:17,15.08834511,0.0001823,53.2138,259.6861,83.2206,276.8994,4.91e-05,4.93e-06,0.0,0 STARLINK-4672,1 53592U 22104E   23279.13144699  .00000493  00000-0  49100-4 0  9997,2 53592  53.2138 259.6861 0001823  83.2206 276.8994 15.08834511 61233,6917.897,95.438,541.023,538.501,0.0
53592.0,STARLINK-4672,PAYLOAD,2023-10-06 09:30:49,15.08843221,0.0001553,53.2153,258.4973,85.6922,274.4248,0.0001401,1.943e-05,0.0,0 STARLINK-4672,1 53592U 22104E   23279.39640278  .00001943  00000-0  14010-3 0  9991,2 53592  53.2153 258.4973 0001553  85.6922 274.4248 15.08843221 61270,6917.871,95.437,540.81,538.661,0.0
53592.0,STARLINK-4672,PAYLOAD,2023-10-06 15:52:21,15.08836101,0.0001169,53.2154,257.3061,97.9418,262.1707,0.000114,1.527e-05,0.0,0 STARLINK-4672,1 53592U 22104E   23279.66136481  .00001527  00000-0  11400-3 0  9995,2 53592  53.2154 257.3061 0001169  97.9418 262.1707 15.08836101 62337,6917.892,95.438,540.566,538.949,0.0
53592.0,STARLINK-4672,PAYLOAD,2023-10-07 07:46:13,15.08843484,0.0001272,53.217,254.3318,108.7353,251.3778,0.00010567,1.394e-05,0.0,0 STARLINK-4672,1 53592U 22104E   23280.32376195  .00001394  00000-0  10567-3 0  9993,2 53592  53.2170 254.3318 0001272 108.7353 251.3778 15.08843484 62432,6917.87,95.437,540.615,538.855,0.0
53592.0,STARLINK-4672,PAYLOAD,2023-10-07 15:43:08,15.08839157,0.0001392,53.2166,252.8452,98.2161,261.8989,-1.3991e-05,-5.11e-06,0.0,0 STARLINK-4672,1 53592U 22104E   23280.65496527 -.00000511  00000-0 -13991-4 0  9998,2 53592  53.2166 252.8452 0001392  98.2161 261.8989 15.08839157 62489,6917.883,95.438,540.711,538.785,0.0
53592.0,STARLINK-4672,PAYLOAD,2023-10-08 02:50:51,15.08833173,0.0001158,53.217,250.7632,96.8891,263.2233,0.00019721,2.852e-05,0.0,0 STARLINK-4672,1 53592U 22104E   23281.11865039  .00002852  00000-0  19721-3 0  9992,2 53592  53.2170 250.7632 0001158  96.8891 263.2233 15.08833173 61530,6917.901,95.438,540.567,538.965,0.0
53592.0,STARLINK-4672,PAYLOAD,2023-10-08 04:26:14,15.0884029,0.0001524,53.2161,250.4652,116.0728,244.0421,0.00012183,1.651e-05,0.0,0 STARLINK-4672,1 53592U 22104E   23281.18488614  .00001651  00000-0  12183-3 0  9990,2 53592  53.2161 250.4652 0001524 116.0728 244.0421 15.08840290 62568,6917.88,95.438,540.799,538.69,0.0
53592.0,STARLINK-4672,PAYLOAD,2023-10-08 15:33:56,15.08843027,0.0001361,53.2161,248.3844,102.6771,257.4373,0.00012763,1.744e-05,0.0,0 STARLINK-4672,1 53592U 22104E   23281.64856592  .00001744  00000-0  12763-3 0  9992,2 53592  53.2161 248.3844 0001361 102.6771 257.4373 15.08843027 61615,6917.871,95.437,540.678,538.795,0.0
53592.0,STARLINK-4672,PAYLOAD,2023-10-09 04:17:00,15.08854406,0.0001453,53.2164,246.0078,95.171,264.9448,0.00021372,3.116e-05,0.0,0 STARLINK-4672,1 53592U 22104E   23282.17848124  .00003116  00000-0  21372-3 0  9994,2 53592  53.2164 246.0078 0001453  95.1710 264.9448 15.08854406 61690,6917.836,95.437,540.707,538.696,0.0
53592.0,STARLINK-4672,PAYLOAD,2023-10-09 21:46:15,15.08842767,0.0001501,53.2156,242.7343,95.136,264.9803,0.00015205,2.133e-05,0.0,0 STARLINK-4672,1 53592U 22104E   23282.90712711  .00002133  00000-0  15205-3 0  9993,2 53592  53.2156 242.7343 0001501  95.1360 264.9803 15.08842767 62822,6917.872,95.437,540.775,538.699,0.0
53592.0,STARLINK-4672,PAYLOAD,2023-10-10 02:32:25,15.08845519,0.0001511,53.2155,241.8425,103.1807,256.9353,0.00016686,2.369e-05,0.0,0 STARLINK-4672,1 53592U 22104E   23283.10584498  .00002369  00000-0  16686-3 0  9990,2 53592  53.2155 241.8425 0001511 103.1807 256.9353 15.08845519 61838,6917.864,95.437,540.774,538.683,0.0
53592.0,STARLINK-4672,PAYLOAD,2023-10-10 07:18:34,15.08850371,0.0001763,53.2175,240.9503,99.0605,261.0586,0.00020904,3.041e-05,0.0,0 STARLINK-4672,1 53592U 22104E   23283.30456310  .00003041  00000-0  20904-3 0  9999,2 53592  53.2175 240.9503 0001763  99.0605 261.0586 15.08850371 62888,6917.849,95.437,540.933,538.494,0.0
53592.0,STARLINK-4672,PAYLOAD,2023-10-10 21:37:03,15.08830316,0.0001453,53.2154,238.2741,103.1471,256.9683,-0.00012429,-2.265e-05,0.0,0 STARLINK-4672,1 53592U 22104E   23283.90073279 -.00002265  00000-0 -12429-3 0  9996,2 53592  53.2154 238.2741 0001453 103.1471 256.9683 15.08830316 62971,6917.91,95.438,540.78,538.77,0.0
53592.0,STARLINK-4672,PAYLOAD,2023-10-11 02:23:12,15.08831383,0.0001562,53.2155,237.3821,106.0529,254.0635,-8.8848e-05,-1.701e-05,0.0,0 STARLINK-4672,1 53592U 22104E   23284.09945483 -.00001701  00000-0 -88848-4 0  9995,2 53592  53.2155 237.3821 0001562 106.0529 254.0635 15.08831383 61989,6917.907,95.438,540.852,538.691,0.0
